{
    "links": {
        "self": "http://www.neowsapp.com/rest/v1/neo/3828426?api_key=iIulBulltgU6a56xZRHN4H3l9WmuAYTsLGpBGhQ2"
    },
    "id": "3828426",
    "neo_reference_id": "3828426",
    "name": "(2018 RH5)",
    "designation": "2018 RH5",
    "nasa_jpl_url": "http://ssd.jpl.nasa.gov/sbdb.cgi?sstr=3828426",
    "absolute_magnitude_h": 26.6,
    "estimated_diameter": {
        "kilometers": {
            "estimated_diameter_min": 0.0127219879,
            "estimated_diameter_max": 0.0284472297
        },
        "meters": {
            "estimated_diameter_min": 12.7219878539,
            "estimated_diameter_max": 28.4472296503
        },
        "miles": {
            "estimated_diameter_min": 0.0079050743,
            "estimated_diameter_max": 0.0176762835
        },
        "feet": {
            "estimated_diameter_min": 41.7388066307,
            "estimated_diameter_max": 93.330808926
        }
    },
    "is_potentially_hazardous_asteroid": false,
    "close_approach_data": [
        {
            "close_approach_date": "1955-08-12",
            "close_approach_date_full": "1955-Aug-12 21:04",
            "epoch_date_close_approach": -454042560000,
            "relative_velocity": {
                "kilometers_per_second": "10.0638124065",
                "kilometers_per_hour": "36229.7246635249",
                "miles_per_hour": "22511.7419721775"
            },
            "miss_distance": {
                "astronomical": "0.1477178255",
                "lunar": "57.4622341195",
                "kilometers": "22098272.055831685",
                "miles": "13731229.529919853"
            },
            "orbiting_body": "Earth"
        },
        {
            "close_approach_date": "2018-09-10",
            "close_approach_date_full": "2018-Sep-10 15:21",
            "epoch_date_close_approach": 1536592860000,
            "relative_velocity": {
                "kilometers_per_second": "6.8331414711",
                "kilometers_per_hour": "24599.3092959619",
                "miles_per_hour": "15285.0541567048"
            },
            "miss_distance": {
                "astronomical": "0.0342900897",
                "lunar": "13.3388448933",
                "kilometers": "5129724.381228939",
                "miles": "3187462.9258757982"
            },
            "orbiting_body": "Earth"
        }
    ],
    "orbital_data": {
        "orbit_id": "3",
        "orbit_determination_date": "2018-09-18 07:19:41",
        "first_observation_date": "2018-09-12",
        "last_observation_date": "2018-09-18",
        "data_arc_in_days": 6,
        "observations_used": 37,
        "orbit_uncertainty": "8",
        "minimum_orbit_intersection": ".0341697",
        "jupiter_tisserand_invariant": "3.661",
        "epoch_osculation": "2458376.5",
        "eccentricity": ".4846648552940797",
        "semi_major_axis": "2.019064870318224",
        "inclination": "5.845063743979469",
        "ascending_node_longitude": "348.2968543014093",
        "orbital_period": "1047.909640377267",
        "perihelion_distance": "1.040495087116082",
        "perihelion_argument": "2.995316132582567",
        "aphelion_distance": "2.997634653520366",
        "perihelion_time": "2458375.262081146943",
        "mean_anomaly": ".4252759683936845",
        "mean_motion": ".3435410708411779",
        "equinox": "J2000",
        "orbit_class": {
            "orbit_class_type": "AMO",
            "orbit_class_description": "Near-Earth asteroid orbits similar to that of 1221 Amor",
            "orbit_class_range": "1.017 AU < q (perihelion) < 1.3 AU"
        }
    },
    "is_sentry_object": false
}